[{"OBJECT_NAME":"STARLINK-2703","OBJECT_ID":"2021-040AA","EPOCH":"2026-01-09T12:42:27.173952","MEAN_MOTION":15.06414329,"ECCENTRICITY":0.00013317,"INCLINATION":53.0564,"RA_OF_ASC_NODE":87.1711,"ARG_OF_PERICENTER":85.822,"MEAN_ANOMALY":274.2921,"EPHEMERIS_TYPE":0,"CLASSIFICATION_TYPE":"U","NORAD_CAT_ID":48452,"ELEMENT_SET_NO":999,"REV_AT_EPOCH":25771,"BSTAR":0.00031545164,"MEAN_MOTION_DOT":4.422e-5,"MEAN_MOTION_DDOT":0},{"OBJECT_NAME":"STARLINK-2620","OBJECT_ID":"2021-040AB","EPOCH":"2026-01-09T12:37:08.784768","MEAN_MOTION":15.06417175,"ECCENTRICITY":0.0001268,"INCLINATION":53.0557,"RA_OF_ASC_NODE":87.2162,"ARG_OF_PERICENTER":80.0077,"MEAN_ANOMALY":280.1055,"EPHEMERIS_TYPE":0,"CLASSIFICATION_TYPE":"U","NORAD_CAT_ID":48453,"ELEMENT_SET_NO":999,"REV_AT_EPOCH":25771,"BSTAR":7.6177498e-5,"MEAN_MOTION_DOT":8.54e-6,"MEAN_MOTION_DDOT":0},{"OBJECT_NAME":"STARLINK-2654","OBJECT_ID":"2021-040AC","EPOCH":"2026-01-09T12:31:50.494944","MEAN_MOTION":15.06416914,"ECCENTRICITY":0.00014143,"INCLINATION":53.0545,"RA_OF_ASC_NODE":87.234,"ARG_OF_PERICENTER":90.9941,"MEAN_ANOMALY":269.121,"EPHEMERIS_TYPE":0,"CLASSIFICATION_TYPE":"U","NORAD_CAT_ID":48454,"ELEMENT_SET_NO":999,"REV_AT_EPOCH":25771,"BSTAR":0.00032359162,"MEAN_MOTION_DOT":4.544e-5,"MEAN_MOTION_DDOT":0},{"OBJECT_NAME":"STARLINK-2497","OBJECT_ID":"2021-040AD","EPOCH":"2026-01-09T12:26:31.655616","MEAN_MOTION":15.06420029,"ECCENTRICITY":0.00013254,"INCLINATION":53.055,"RA_OF_ASC_NODE":87.2494,"ARG_OF_PERICENTER":89.628,"MEAN_ANOMALY":270.4861,"EPHEMERIS_TYPE":0,"CLASSIFICATION_TYPE":"U","NORAD_CAT_ID":48455,"ELEMENT_SET_NO":999,"REV_AT_EPOCH":25770,"BSTAR":0.00018342601,"MEAN_MOTION_DOT":2.453e-5,"MEAN_MOTION_DDOT":0},{"OBJECT_NAME":"STARLINK-2698","OBJECT_ID":"2021-040AG","EPOCH":"2026-01-09T12:39:09.013824","MEAN_MOTION":15.06424383,"ECCENTRICITY":9.934e-5,"INCLINATION":53.0536,"RA_OF_ASC_NODE":92.2978,"ARG_OF_PERICENTER":84.5374,"MEAN_ANOMALY":275.5728,"EPHEMERIS_TYPE":0,"CLASSIFICATION_TYPE":"U","NORAD_CAT_ID":48458,"ELEMENT_SET_NO":999,"REV_AT_EPOCH":25835,"BSTAR":0.00048788303,"MEAN_MOTION_DOT":6.998e-5,"MEAN_MOTION_DDOT":0},{"OBJECT_NAME":"STARLINK-2579","OBJECT_ID":"2021-040AH","EPOCH":"2026-01-09T20:00:00.999360","MEAN_MOTION":15.16234029,"ECCENTRICITY":4.75e-5,"INCLINATION":53.0979,"RA_OF_ASC_NODE":90.9952,"ARG_OF_PERICENTER":72.1073,"MEAN_ANOMALY":297.9381,"EPHEMERIS_TYPE":0,"CLASSIFICATION_TYPE":"U","NORAD_CAT_ID":48459,"ELEMENT_SET_NO":999,"REV_AT_EPOCH":581,"BSTAR":0.059907,"MEAN_MOTION_DOT":0.01267606,"MEAN_MOTION_DDOT":0},{"OBJECT_NAME":"STARLINK-2582","OBJECT_ID":"2021-040AJ","EPOCH":"2026-01-09T09:19:56.803296","MEAN_MOTION":15.43213311,"ECCENTRICITY":0.00017163,"INCLINATION":53.0647,"RA_OF_ASC_NODE":54.3515,"ARG_OF_PERICENTER":26.53,"MEAN_ANOMALY":333.5792,"EPHEMERIS_TYPE":0,"CLASSIFICATION_TYPE":"U","NORAD_CAT_ID":48460,"ELEMENT_SET_NO":999,"REV_AT_EPOCH":25868,"BSTAR":0.0026475148,"MEAN_MOTION_DOT":0.00120843,"MEAN_MOTION_DDOT":0},{"OBJECT_NAME":"STARLINK-2683","OBJECT_ID":"2021-040AL","EPOCH":"2026-01-09T12:51:47.679264","MEAN_MOTION":15.06434198,"ECCENTRICITY":0.00012291,"INCLINATION":53.0538,"RA_OF_ASC_NODE":97.4501,"ARG_OF_PERICENTER":95.0209,"MEAN_ANOMALY":265.092,"EPHEMERIS_TYPE":0,"CLASSIFICATION_TYPE":"U","NORAD_CAT_ID":48462,"ELEMENT_SET_NO":999,"REV_AT_EPOCH":25757,"BSTAR":0.00091839307,"MEAN_MOTION_DOT":0.00013437,"MEAN_MOTION_DDOT":0},{"OBJECT_NAME":"STARLINK-2686","OBJECT_ID":"2021-040AN","EPOCH":"2026-01-09T12:30:30.460032","MEAN_MOTION":15.06414867,"ECCENTRICITY":0.00013382,"INCLINATION":53.0556,"RA_OF_ASC_NODE":97.2388,"ARG_OF_PERICENTER":94.4089,"MEAN_ANOMALY":265.7053,"EPHEMERIS_TYPE":0,"CLASSIFICATION_TYPE":"U","NORAD_CAT_ID":48464,"ELEMENT_SET_NO":999,"REV_AT_EPOCH":25757,"BSTAR":0.00014242219,"MEAN_MOTION_DOT":1.841e-5,"MEAN_MOTION_DDOT":0},{"OBJECT_NAME":"STARLINK-2681","OBJECT_ID":"2021-040AP","EPOCH":"2026-01-09T12:46:26.349888","MEAN_MOTION":15.06397927,"ECCENTRICITY":0.00013544,"INCLINATION":53.0545,"RA_OF_ASC_NODE":97.1875,"ARG_OF_PERICENTER":82.5722,"MEAN_ANOMALY":277.5421,"EPHEMERIS_TYPE":0,"CLASSIFICATION_TYPE":"U","NORAD_CAT_ID":48465,"ELEMENT_SET_NO":999,"REV_AT_EPOCH":25758,"BSTAR":0.00047970573,"MEAN_MOTION_DOT":6.87e-5,"MEAN_MOTION_DDOT":0},{"OBJECT_NAME":"STARLINK-2687","OBJECT_ID":"2021-040AQ","EPOCH":"2026-01-09T12:25:12.664416","MEAN_MOTION":15.06414677,"ECCENTRICITY":0.00017274,"INCLINATION":53.0565,"RA_OF_ASC_NODE":97.2522,"ARG_OF_PERICENTER":96.0247,"MEAN_ANOMALY":264.0939,"EPHEMERIS_TYPE":0,"CLASSIFICATION_TYPE":"U","NORAD_CAT_ID":48466,"ELEMENT_SET_NO":999,"REV_AT_EPOCH":25758,"BSTAR":0.00021831085,"MEAN_MOTION_DOT":2.973e-5,"MEAN_MOTION_DDOT":0},{"OBJECT_NAME":"STARLINK-2659","OBJECT_ID":"2021-040AR","EPOCH":"2026-01-09T13:02:21.240096","MEAN_MOTION":15.06420359,"ECCENTRICITY":0.00014754,"INCLINATION":53.0554,"RA_OF_ASC_NODE":97.1397,"ARG_OF_PERICENTER":96.6645,"MEAN_ANOMALY":263.4512,"EPHEMERIS_TYPE":0,"CLASSIFICATION_TYPE":"U","NORAD_CAT_ID":48467,"ELEMENT_SET_NO":999,"REV_AT_EPOCH":25758,"BSTAR":0.00032538926,"MEAN_MOTION_DOT":4.571e-5,"MEAN_MOTION_DDOT":0},{"OBJECT_NAME":"STARLINK-2685","OBJECT_ID":"2021-040AS","EPOCH":"2026-01-09T12:35:49.256160","MEAN_MOTION":15.06415607,"ECCENTRICITY":0.00013853,"INCLINATION":53.0544,"RA_OF_ASC_NODE":97.2212,"ARG_OF_PERICENTER":95.7453,"MEAN_ANOMALY":264.3694,"EPHEMERIS_TYPE":0,"CLASSIFICATION_TYPE":"U","NORAD_CAT_ID":48468,"ELEMENT_SET_NO":999,"REV_AT_EPOCH":25758,"BSTAR":0.00027867494,"MEAN_MOTION_DOT":3.873e-5,"MEAN_MOTION_DDOT":0},{"OBJECT_NAME":"STARLINK-2661","OBJECT_ID":"2021-040AT","EPOCH":"2026-01-09T12:57:04.416480","MEAN_MOTION":15.06399578,"ECCENTRICITY":0.00012841,"INCLINATION":53.056,"RA_OF_ASC_NODE":97.1552,"ARG_OF_PERICENTER":93.7678,"MEAN_ANOMALY":266.3458,"EPHEMERIS_TYPE":0,"CLASSIFICATION_TYPE":"U","NORAD_CAT_ID":48469,"ELEMENT_SET_NO":999,"REV_AT_EPOCH":25758,"BSTAR":-7.825019e-5,"MEAN_MOTION_DOT":-1.447e-5,"MEAN_MOTION_DDOT":0},{"OBJECT_NAME":"STARLINK-2675","OBJECT_ID":"2021-040AU","EPOCH":"2026-01-09T12:04:01.958016","MEAN_MOTION":15.06416018,"ECCENTRICITY":0.0001245,"INCLINATION":53.0561,"RA_OF_ASC_NODE":97.6666,"ARG_OF_PERICENTER":94.3808,"MEAN_ANOMALY":265.7323,"EPHEMERIS_TYPE":0,"CLASSIFICATION_TYPE":"U","NORAD_CAT_ID":48470,"ELEMENT_SET_NO":999,"REV_AT_EPOCH":25756,"BSTAR":0.00016609569,"MEAN_MOTION_DOT":2.194e-5,"MEAN_MOTION_DDOT":0},{"OBJECT_NAME":"STARLINK-2684","OBJECT_ID":"2021-040AV","EPOCH":"2026-01-09T12:41:09.287808","MEAN_MOTION":15.0639628,"ECCENTRICITY":0.00012168,"INCLINATION":53.0558,"RA_OF_ASC_NODE":97.2045,"ARG_OF_PERICENTER":73.8185,"MEAN_ANOMALY":286.2938,"EPHEMERIS_TYPE":0,"CLASSIFICATION_TYPE":"U","NORAD_CAT_ID":48471,"ELEMENT_SET_NO":999,"REV_AT_EPOCH":25757,"BSTAR":-8.6337926e-5,"MEAN_MOTION_DOT":-1.567e-5,"MEAN_MOTION_DDOT":0}]
