STARLINK-2703           
1 48452U 21040AA  26009.52948118  .00004422  00000+0  31545-3 0  9997
2 48452  53.0564  87.1711 0001331  85.8220 274.2921 15.06414329257710
STARLINK-2620           
1 48453U 21040AB  26009.52579612  .00000854  00000+0  76177-4 0  9993
2 48453  53.0557  87.2162 0001268  80.0077 280.1055 15.06417175257716
STARLINK-2654           
1 48454U 21040AC  26009.52211221  .00004544  00000+0  32359-3 0  9996
2 48454  53.0545  87.2340 0001414  90.9941 269.1210 15.06416914257715
STARLINK-2497           
1 48455U 21040AD  26009.51842194  .00002453  00000+0  18343-3 0  9999
2 48455  53.0550  87.2494 0001325  89.6280 270.4861 15.06420029257702
STARLINK-2698           
1 48458U 21040AG  26009.52718766  .00006998  00000+0  48788-3 0  9994
2 48458  53.0536  92.2978 0000993  84.5374 275.5728 15.06424383258357
STARLINK-2579           
1 48459U 21040AH  26009.83334490  .01267606  00000+0  59907-1 0  9996
2 48459  53.0979  90.9952 0000475  72.1073 297.9381 15.16234029  5811
STARLINK-2582           
1 48460U 21040AJ  26009.38885189  .00120843  00000+0  26475-2 0  9999
2 48460  53.0647  54.3515 0001716  26.5300 333.5792 15.43213311258688
STARLINK-2683           
1 48462U 21040AL  26009.53596851  .00013437  00000+0  91839-3 0  9990
2 48462  53.0538  97.4501 0001229  95.0209 265.0920 15.06434198257576
STARLINK-2686           
1 48464U 21040AN  26009.52118588  .00001841  00000+0  14242-3 0  9997
2 48464  53.0556  97.2388 0001338  94.4089 265.7053 15.06414867257574
STARLINK-2681           
1 48465U 21040AP  26009.53224942  .00006870  00000+0  47971-3 0  9993
2 48465  53.0545  97.1875 0001354  82.5722 277.5421 15.06397927257581
STARLINK-2687           
1 48466U 21040AQ  26009.51750769  .00002973  00000+0  21831-3 0  9990
2 48466  53.0565  97.2522 0001727  96.0247 264.0939 15.06414677257587
STARLINK-2659           
1 48467U 21040AR  26009.54330139  .00004571  00000+0  32539-3 0  9992
2 48467  53.0554  97.1397 0001475  96.6645 263.4512 15.06420359257587
STARLINK-2685           
1 48468U 21040AS  26009.52487565  .00003873  00000+0  27867-3 0  9999
2 48468  53.0544  97.2212 0001385  95.7453 264.3694 15.06415607257582
STARLINK-2661           
1 48469U 21040AT  26009.53963445 -.00001447  00000+0 -78250-4 0  9997
2 48469  53.0560  97.1552 0001284  93.7678 266.3458 15.06399578257580
STARLINK-2675           
1 48470U 21040AU  26009.50280044  .00002194  00000+0  16610-3 0  9992
2 48470  53.0561  97.6666 0001245  94.3808 265.7323 15.06416018257564
STARLINK-2684           
1 48471U 21040AV  26009.52857972 -.00001567  00000+0 -86338-4 0  9995
2 48471  53.0558  97.2045 0001216  73.8185 286.2938 15.06396280257575
